OBJECT_NAME,OBJECT_ID,EPOCH,MEAN_MOTION,ECCENTRICITY,INCLINATION,RA_OF_ASC_NODE,ARG_OF_PERICENTER,MEAN_ANOMALY,EPHEMERIS_TYPE,CLASSIFICATION_TYPE,NORAD_CAT_ID,ELEMENT_SET_NO,REV_AT_EPOCH,BSTAR,MEAN_MOTION_DOT,MEAN_MOTION_DDOT
LEMUR-2-ROUNDTRIPPER,2025-009DG,2026-07-02T04:44:01.839264,15.04035331,.00048959,97.7231,265.8564,95.0137,265.1648,0,U,62711,999,7988,.76283477E-3,.10499E-3,0
LEMUR-2-MYNAMEISJEFF,2025-009DH,2026-07-02T04:41:44.931552,15.04028484,.00037091,97.7278,266.2449,126.9268,233.2298,0,U,62712,999,7988,.75923972E-3,.10446E-3,0
LEMUR-2-LEIA-PHILIP,2025-052AN,2026-07-02T10:33:27.517248,14.97356498,.00043921,97.6813,75.1327,156.0283,204.1144,0,U,63246,999,7095,.17769367E-3,.2006E-4,0
LEMUR-2-LIA-MARTIN,2025-052AQ,2026-07-02T15:21:39.465504,14.97926983,.00046864,97.6863,75.8271,122.6554,237.5121,0,U,63248,999,7099,.49698079E-3,.5802E-4,0
LEMUR-2-DELOITTE-1,2025-052BB,2026-07-02T10:02:01.089024,14.97706500,.00025112,97.6897,75.9405,67.7482,292.4006,0,U,63259,999,7097,.37152461E-3,.4296E-4,0
LEMUR-2-EMERSONROSE,2025-052BD,2026-07-02T15:29:09.631104,14.99195276,.00025017,97.6867,76.7500,76.9084,283.2418,0,U,63261,999,7105,.43235889E-3,.5208E-4,0
LEMUR-2-MARACHE-FRAN,2025-052BE,2026-07-02T06:38:03.561504,15.00231365,.00043284,97.6893,76.7354,315.5500,44.5376,0,U,63262,999,7102,.43929627E-3,.5439E-4,0
LEMUR-2-THEFALCONER,2025-052BG,2026-07-02T12:19:29.470656,14.97488536,.00011542,97.6840,75.6367,25.8688,334.2592,0,U,63264,999,7098,.42528792E-3,.4899E-4,0
LEMUR-2-UNTITLED-SC,2025-061A,2026-07-02T10:14:44.458944,15.13575453,.00178787,97.5644,158.6786,207.5549,152.4736,0,U,63351,999,6989,.24450386E-3,.4336E-4,0
LEMUR-2-ESPERANZA,2025-061B,2026-07-02T11:15:40.919040,15.13669515,.00174776,97.5653,158.8177,206.5802,153.4534,0,U,63352,999,6990,.25427078E-3,.4523E-4,0
LEMUR-2-KREMPEL-BRO2,2025-061C,2026-07-02T10:13:00.154272,15.14106147,.00186126,97.5698,159.3273,199.1906,160.8627,0,U,63353,999,6991,.2489223E-3,.4483E-4,0
LEMUR-2-THERMORAPTOR,2025-061D,2026-07-02T11:21:10.413216,15.14191238,.00183492,97.5704,159.4530,197.8088,162.2502,0,U,63354,999,6992,.26838298E-3,.4851E-4,0
LEMUR-2-NEUROSPICY,2025-061E,2026-07-02T10:38:41.802432,15.14306072,.00161144,97.5629,159.0381,200.8078,159.2500,0,U,63355,999,6992,.22402489E-3,.4047E-4,0
LEMUR-2-TILLINFINITY,2025-061F,2026-07-02T11:21:00.561888,15.14891768,.00176907,97.5617,159.3685,188.9379,171.1540,0,U,63356,999,6995,.26204511E-3,.4828E-4,0
LEMUR-2-KREMPEL-BRO1,2025-061G,2026-07-02T10:45:37.567008,15.14697345,.00183057,97.5618,159.2557,190.4249,169.6606,0,U,63357,999,6994,.225016E-3,.4114E-4,0
LEMUR-2-LANGER2SPACE,2025-061H,2026-07-02T09:53:02.658912,15.14392001,.00160429,97.5622,159.0274,199.2864,160.7763,0,U,63358,999,6992,.2668049E-3,.4845E-4,0
LEMUR-2-BALTO,2025-052BH,2026-07-02T06:15:59.586912,15.00252414,.00061297,97.6926,76.6966,16.0329,344.1087,0,U,63395,999,7102,.54219103E-3,.6733E-4,0
LEMUR-2-KRISH,2025-135AK,2026-07-02T07:43:14.767680,14.96342206,.00014013,97.7757,298.0944,107.1377,252.9998,0,U,64561,999,5618,.5514597E-3,.6184E-4,0
LEMUR-2-HUBBLE-4,2025-135AP,2026-07-02T13:07:37.877952,14.93656519,.00015451,97.7710,297.2716,200.2756,159.8403,0,U,64565,999,5616,.18794507E-3,.1929E-4,0
LEMUR-2-SEJONG-2,2025-135BL,2026-07-02T14:44:25.171872,14.96830933,.0002734,97.7719,298.5307,274.9190,85.1719,0,U,64586,999,5625,.4711544E-3,.5341E-4,0
LEMUR-2-HUBBLE-5,2025-135BT,2026-07-02T13:26:46.756032,14.94183263,.00041137,97.7732,297.9402,292.4463,67.6321,0,U,64840,999,5620,.1430628E-3,.1475E-4,0
LEMUR-2-KARENDARRELL,2025-135BU,2026-07-02T14:12:51.450624,15.00343923,.00111486,97.7696,299.7762,145.6467,214.5479,0,U,64841,999,5632,.73699121E-3,.9205E-4,0
LEMUR-2-LUCILLE-ROSE,2025-135BV,2026-07-02T13:34:35.565024,15.00348433,.00132102,97.7740,299.7827,228.4002,131.6090,0,U,65403,999,5094,.63455116E-3,.7921E-4,0
LEMUR-2-AFFIE-WAUWIE,2025-248C,2026-07-02T14:54:33.867648,15.27806899,.00082402,45.3935,31.3325,184.8356,175.2454,0,U,66295,999,3695,.82533168E-3,.22617E-3,0
LEMUR-2-DEANANDMAEVE,2025-276N,2026-07-02T04:39:52.884576,15.19917633,.00044246,97.4208,256.4220,315.6162,44.4718,0,U,66678,999,3269,.35220213E-3,.7503E-4,0
LEMUR-2-STAS-GORBUK,2025-276W,2026-07-02T11:25:15.049632,15.19542879,.00036716,97.4242,256.7525,313.2597,46.8331,0,U,66686,999,3273,.34269487E-3,.7219E-4,0
LEMUR-2-TEODOR,2025-276DG,2026-07-02T12:12:27.401472,15.21218275,.00023721,97.4148,257.0404,101.2671,258.8831,0,U,66768,999,3277,.30970574E-3,.6844E-4,0
LEMUR-2-LAILA,2025-276DQ,2026-07-02T05:12:50.482944,15.21439154,.00028348,97.4169,256.8837,114.0058,246.1475,0,U,66776,999,3273,.33128215E-3,.7374E-4,0
LEMUR-2-CELIJO-SB-PK,2025-276DW,2026-07-02T10:41:37.979808,15.00160507,.00077674,97.5214,253.7211,95.7431,264.4679,0,U,66781,999,2491,.61945068E-3,.7687E-4,0
